ZHOU ENLAI              
1 43156U 18008B   21321.91667853  .00002148  00000+0  12619-3 0  9996
2 43156  97.3894  22.0081 0014950 152.5806  22.4991 15.12657180211209
QUANTUTONG 1            
1 43158U 18008D   21321.71098951  .00001882  00000+0  11307-3 0  9990
2 43158  97.3844  20.1561 0013846 152.5174 324.4691 15.11998898211091
S-NET D                 
1 43186U 18014G   21321.27686523  .00000710  00000+0  66272-4 0  9998
2 43186  97.6669 226.0238 0009486 292.3137  67.7079 14.97228573207164
S-NET B                 
1 43187U 18014H   21321.41050764  .00000720  00000+0  67126-4 0  9997
2 43187  97.6665 226.1155 0009477 291.7462  68.2750 14.97228095207187
S-NET A                 
1 43188U 18014J   21321.27701001  .00000712  00000+0  66488-4 0  9990
2 43188  97.6670 226.0365 0009475 292.3482  67.6735 14.97226855207169
S-NET C                 
1 43189U 18014K   21321.27752215  .00000736  00000+0  68575-4 0  9999
2 43189  97.6666 225.9763 0009453 292.2384  67.7835 14.97226425205715
FENGMANIU-1 (FMN-1)     
1 43192U 18015A   21321.96989183  .00005939  00000+0  20727-3 0  9992
2 43192  97.5091  98.4657 0014651  62.5229  55.8347 15.29894951211047
SHAONIAN XING           
1 43199U 18015H   21321.94194758  .00004033  00000+0  14623-3 0  9995
2 43199  97.4871  94.9773 0016505  71.8734  76.6092 15.28816985211085
LUOJIA-1 01             
1 43485U 18048B   21321.78696980  .00000294  00000+0  49047-4 0  9999
2 43485  97.9530  41.3357 0011833 156.1538 204.0215 14.76955840186623
SURFSAT                 
1 43614U 18070B   21321.13742874  .00007689  00000+0  16619-3 0  9994
2 43614  93.0273   9.6988 0015641 123.7749 236.5001 15.44379735178218
CP7 (DAVE)              
1 43615U 18070C   21321.64106032  .00007850  00000+0  17184-3 0  9999
2 43615  93.0275   9.8421 0015912 122.5749 237.7047 15.43998742178276
ELFIN-B                 
1 43616U 18070D   21321.38169206  .00013953  00000+0  26249-3 0  9996
2 43616  93.0225  10.1597 0015285 118.9577 241.3217 15.48395531178409
ELFIN-A                 
1 43617U 18070E   21321.67268313  .00015324  00000+0  28100-3 0  9990
2 43617  93.0276  11.2885 0014624 115.2793 244.9983 15.49133809178479
CZ-4B R/B               
1 43656U 18081B   21321.79776004  .00000000  00000+0  17268-4 0  9998
2 43656  99.3750  73.8891 0208996  32.5149 328.8707 14.30491657160094
CUBEBEL-1 (BSUSAT-1)    
1 43666U 18083E   21321.87084669  .00002248  00000+0  10711-3 0  9990
2 43666  97.4442 348.2721 0014305   1.1309 116.3083 15.20077086169319
CHANGSHAGAOXIN (TY 4-01)
1 43669U 18083H   21321.92094029  .00002186  00000+0  10818-3 0  9999
2 43669  97.4365 344.9310 0010453   0.4723 118.5530 15.18816357169179
TEN-KOH                 
1 43677U 18084G   21321.31476866  .00000347  00000+0  41336-4 0  9992
2 43677  97.9394  84.9265 0014735 249.0760 110.8880 14.90591095166071
DIWATA-2B               
1 43678U 18084H   21321.78686892  .00000472  00000+0  52506-4 0  9996
2 43678  97.9434  88.0459 0008362 263.8627  96.1657 14.91835226166292
STARS-AO                
1 43679U 18084J   21321.34517470  .00000374  00000+0  41981-4 0  9990
2 43679  97.9482  89.0711 0007780 272.4194  87.6134 14.92714848166298
AUTCUBE 2               
1 43681U 18084K   21321.35336050  .00000459  00000+0  50708-4 0  9998
2 43681  97.9446  88.0114 0008093 265.3372  94.6922 14.92248499166213
IRVINE01                
1 43693U 18088D   21321.43321623  .00010333  00000+0  37971-3 0  9992
2 43693  85.0319  93.1387 0015603 172.9606 187.1861 15.27647937167771
ES'HAIL 2               
1 43700U 18090A   21321.73269247  .00000155  00000+0  00000+0 0  9990
2 43700   0.0135 283.2896 0002505 334.1079  89.1996  1.00273183 11157
FACSAT-1                
1 43721U 18096C   21321.76205104  .00004148  00000+0  14405-3 0  9998
2 43721  97.3735  37.7388 0017800  88.4873  29.0949 15.30181053165555
CENTAURI-2              
1 43722U 18096D   21321.84470734  .00006240  00000+0  20542-3 0  9995
2 43722  97.3778  38.9756 0017046  85.8801 274.4388 15.31716725165621
3CAT-1                  
1 43728U 18096K   21321.89604920  .00005536  00000+0  18102-3 0  9998
2 43728  97.3781  39.6840 0017260  89.1514  23.7584 15.31989005165669
INNOSAT-2               
1 43738U 18096V   21321.90970596  .00008420  00000+0  24031-3 0  9999
2 43738  97.3850  43.8458 0020972  83.4259  28.0386 15.36066324165939
REAKTOR HELLO WORLD     
1 43743U 18096AA  21321.43700179  .00003731  00000+0  13127-3 0  9995
2 43743  97.3754  37.7645 0018309  94.0424 266.2910 15.29813882165515
ELYSIUM STAR 2 & LFF    
1 43760U 18099C   21321.44475035  .00000980  00000+0  90661-4 0  9990
2 43760  97.6562  29.6066 0012444 253.1378 106.8479 14.96762144161399
2018-099D               
1 43761U 18099D   21321.78483162 -.00000062  00000+0 -48934-6 0  9999
2 43761  97.6515  28.9146 0013080 256.8917 103.0839 14.95413022161380
AISTECHSAT 2            
1 43768U 18099L   21321.91354436  .00000293  00000+0  31866-4 0  9990
2 43768  97.6464  27.7737 0010058 254.2187 105.7925 14.95069219161072
FOX-1CLIFF (AO-95)      
1 43770U 18099N   21321.14429285  .00001045  00000+0  99306-4 0  9992
2 43770  97.6499  27.8438 0012862 266.3081  93.6669 14.95545699161277
RANGE-A                 
1 43772U 18099Q   21321.67434334  .00001397  00000+0  12976-3 0  9990
2 43772  97.6594  29.6075 0012627 249.1861 110.8008 14.95914083161362
RANGE-B                 
1 43773U 18099R   21321.89934336  .00000056  00000+0  10196-4 0  9996
2 43773  97.6428  27.7421 0012111 249.6675 110.3245 14.95379842161376
2018-099T               
1 43775U 18099T   21321.15812161  .00000232  00000+0  26065-4 0  9996
2 43775  97.6502  28.0538 0013058 257.0302 102.9461 14.95430550161264
MOVE-II                 
1 43780U 18099Y   21321.43965082  .00000621  00000+0  60011-4 0  9995
2 43780  97.6523  28.8617 0012019 261.2772  98.7088 14.96282980161342
SNUSAT-2                
1 43782U 18099AA  21321.15308452  .00000709  00000+0  68626-4 0  9995
2 43782  97.6501  28.2467 0011167 250.3570 109.6447 14.95772604161296
SNUGLITE                
1 43784U 18099AC  21321.14786015  .00000957  00000+0  90522-4 0  9996
2 43784  97.6464  27.9291 0013380 259.0166 100.9550 14.95914422161311
ITASAT 1                
1 43786U 18099AE  21321.83750156  .00000088  00000+0  12983-4 0  9991
2 43786  97.6520  29.3051 0013710 256.5447 103.4247 14.95810200161418
KAZSCISAT-1             
1 43787U 18099AF  21321.43717332  .00000512  00000+0  50178-4 0  9997
2 43787  97.6436  28.0582 0012741 253.5549 106.4273 14.96426330161389
EAGLET-I                
1 43790U 18099AJ  21321.63631710 -.00000040  00000+0  15687-5 0  9992
2 43790  97.6512  29.5802 0012012 261.1885  98.7976 14.96131630161118
ESEO                    
1 43792U 18099AL  21321.44712664 -.00000066  00000+0 -77127-6 0  9998
2 43792  97.6470  28.8571 0011916 258.5905 101.3978 14.95834719161135
CSIM-FD                 
1 43793U 18099AM  21321.44058419  .00000621  00000+0  59007-4 0  9990
2 43793  97.6519  29.5343 0011688 253.0989 106.8952 14.96952537161157
ASTROCAST 0.1           
1 43798U 18099AS  21321.42715772  .00000546  00000+0  53147-4 0  9990
2 43798  97.6524  29.6422 0010939 238.3147 121.7008 14.96425436161394
JY1SAT (JO-97)          
1 43803U 18099AX  21321.64036090  .00000254  00000+0  27638-4 0  9992
2 43803  97.6481  28.8511 0013704 256.7391 103.2302 14.96102729161390
SUOMI-100               
1 43804U 18099AY  21321.64932334  .00000479  00000+0  47700-4 0  9990
2 43804  97.6474  28.8124 0013820 256.5421 103.4261 14.96060052161404
AL-FARABI 2             
1 43805U 18099AZ  21321.82595779  .00001300  00000+0  11976-3 0  9998
2 43805  97.6503  29.2911 0013397 254.7843 105.1870 14.96352682161446
CENTAURI-1              
1 43809U 18099BD  21321.19501922  .00000717  00000+0  68877-4 0  9993
2 43809  97.6488  28.6926 0013743 258.9740 100.9935 14.96008456161035
CHOMPTT                 
1 43855U 18104G   21321.67886697  .00002163  00000+0  85655-4 0  9999
2 43855  85.0391 191.9228 0014818 306.4370  53.5506 15.24700790162435
DAVINCI                 
1 43857U 18104J   21321.93435601  .00006005  00000+0  22178-3 0  9994
2 43857  85.0335 191.1226 0012984 333.2038  26.8534 15.27437341162498
UWE-4                   
1 43880U 18111E   21321.25343767  .00000254  00000+0  26979-4 0  9998
2 43880  97.6770 226.2956 0011392 318.2599  41.7752 14.97124343157946
ZACUBE-2                
1 43907U 18111AH  21321.95558164  .00001286  00000+0  52956-4 0  9994
2 43907  97.2132 210.7883 0022629 108.0922 307.5324 15.25637322161032
MICRODRAGON             
1 43935U 19003D   21321.35998239  .00001495  00000+0  64639-4 0  9994
2 43935  97.1639 356.1027 0016925 200.8158 159.2393 15.23822032157386
AOBA VELOX-IV           
1 43940U 19003J   21321.35006779  .00005969  00000+0  21324-3 0  9992
2 43940  97.1603 359.6823 0021449 180.2744 179.8489 15.28979110157653
M6P                     
1 44109U 19018AF  21321.43870335  .00006171  00000+0  17988-3 0  9999
2 44109  97.4166  39.2387 0054056 165.7834 194.4945 15.34275631146902
FORMOSAT 7-4            
1 44350U 19036M   21321.58222325  .00001317  00000+0  61659-4 0  9995
2 44350  24.0006  39.1592 0006330  75.9571 284.1636 15.08101600131507
PAINANI 1               
1 44365U 19037A   21320.87429511  .00008957  00000+0  20276-3 0  9995
2 44365  45.0022 127.1212 0003881 347.3198  12.7593 15.43538111134308
ACRUX 1                 
1 44369U 19037E   21321.06951354  .00020836  00000+0  33998-3 0  9991
2 44369  45.0036  94.1278 0009757 355.2251   4.8547 15.52250195134661
METEOR-M2 2             
1 44387U 19038A   21321.89273053 -.00000003  00000+0  17725-4 0  9992
2 44387  98.6919 279.7297 0001785 127.0580 233.0766 14.23694277123308
VDNH-80                 
1 44392U 19038G   21321.87222690  .00001661  00000+0  93831-4 0  9999
2 44392  97.6071 286.1175 0021739 139.4084 281.1816 15.14356651130801
